CCSDS_OMM_VERS = 2.0
CREATION_DATE  = 
ORIGINATOR     = 

OBJECT_NAME    = STARLINK-35583
OBJECT_ID      = 2025-270Z
CENTER_NAME    = EARTH
REF_FRAME      = TEME
TIME_SYSTEM    = UTC
MEAN_ELEMENT_THEORY = SGP/SGP4

EPOCH          = 2025-12-04T15:52:57.683136
MEAN_MOTION    = 15.75290299
ECCENTRICITY   = .0002707
INCLINATION    = 42.9979
RA_OF_ASC_NODE = 240.5686
ARG_OF_PERICENTER = 258.8911
MEAN_ANOMALY   = 101.1654

EPHEMERIS_TYPE = 0
CLASSIFICATION_TYPE = U
NORAD_CAT_ID   = 66611
ELEMENT_SET_NO = 999
REV_AT_EPOCH   = 319
BSTAR          = .31127E-2
MEAN_MOTION_DOT = .513526E-2
MEAN_MOTION_DDOT = 0

CCSDS_OMM_VERS = 2.0
CREATION_DATE  = 
ORIGINATOR     = 

OBJECT_NAME    = STARLINK-36039
OBJECT_ID      = 2025-270AA
CENTER_NAME    = EARTH
REF_FRAME      = TEME
TIME_SYSTEM    = UTC
MEAN_ELEMENT_THEORY = SGP/SGP4

EPOCH          = 2025-12-04T17:22:49.247904
MEAN_MOTION    = 15.75226148
ECCENTRICITY   = .0002334
INCLINATION    = 42.9979
RA_OF_ASC_NODE = 240.1763
ARG_OF_PERICENTER = 219.2199
MEAN_ANOMALY   = 140.8501

EPHEMERIS_TYPE = 0
CLASSIFICATION_TYPE = U
NORAD_CAT_ID   = 66612
ELEMENT_SET_NO = 999
REV_AT_EPOCH   = 309
BSTAR          = .31974E-2
MEAN_MOTION_DOT = .526889E-2
MEAN_MOTION_DDOT = 0

CCSDS_OMM_VERS = 2.0
CREATION_DATE  = 
ORIGINATOR     = 

OBJECT_NAME    = STARLINK-36037
OBJECT_ID      = 2025-270AB
CENTER_NAME    = EARTH
REF_FRAME      = TEME
TIME_SYSTEM    = UTC
MEAN_ELEMENT_THEORY = SGP/SGP4

EPOCH          = 2025-12-03T10:57:19.045152
MEAN_MOTION    = 15.77412165
ECCENTRICITY   = .0004122
INCLINATION    = 43.0001
RA_OF_ASC_NODE = 247.8703
ARG_OF_PERICENTER = 349.4174
MEAN_ANOMALY   = 10.6608

EPHEMERIS_TYPE = 0
CLASSIFICATION_TYPE = U
NORAD_CAT_ID   = 66613
ELEMENT_SET_NO = 999
REV_AT_EPOCH   = 289
BSTAR          = .72767216E-3
MEAN_MOTION_DOT = .125531E-2
MEAN_MOTION_DDOT = 0

CCSDS_OMM_VERS = 2.0
CREATION_DATE  = 
ORIGINATOR     = 

OBJECT_NAME    = STARLINK-36040
OBJECT_ID      = 2025-270AC
CENTER_NAME    = EARTH
REF_FRAME      = TEME
TIME_SYSTEM    = UTC
MEAN_ELEMENT_THEORY = SGP/SGP4

EPOCH          = 2025-12-04T15:51:01.032768
MEAN_MOTION    = 15.75376134
ECCENTRICITY   = .000319
INCLINATION    = 42.9982
RA_OF_ASC_NODE = 240.5572
ARG_OF_PERICENTER = 243.2754
MEAN_ANOMALY   = 116.7789

EPHEMERIS_TYPE = 0
CLASSIFICATION_TYPE = U
NORAD_CAT_ID   = 66614
ELEMENT_SET_NO = 999
REV_AT_EPOCH   = 292
BSTAR          = .47436E-2
MEAN_MOTION_DOT = .814786E-2
MEAN_MOTION_DDOT = 0

CCSDS_OMM_VERS = 2.0
CREATION_DATE  = 
ORIGINATOR     = 

OBJECT_NAME    = STARLINK-35988
OBJECT_ID      = 2025-270AD
CENTER_NAME    = EARTH
REF_FRAME      = TEME
TIME_SYSTEM    = UTC
MEAN_ELEMENT_THEORY = SGP/SGP4

EPOCH          = 2025-12-04T00:37:22.745280
MEAN_MOTION    = 15.77540776
ECCENTRICITY   = .0012646
INCLINATION    = 42.9993
RA_OF_ASC_NODE = 244.4008
ARG_OF_PERICENTER = 273.4991
MEAN_ANOMALY   = 86.4432

EPHEMERIS_TYPE = 0
CLASSIFICATION_TYPE = U
NORAD_CAT_ID   = 66615
ELEMENT_SET_NO = 999
REV_AT_EPOCH   = 282
BSTAR          = .20154804E-2
MEAN_MOTION_DOT = .361862E-2
MEAN_MOTION_DDOT = 0

CCSDS_OMM_VERS = 2.0
CREATION_DATE  = 
ORIGINATOR     = 

OBJECT_NAME    = STARLINK-35391
OBJECT_ID      = 2025-270AE
CENTER_NAME    = EARTH
REF_FRAME      = TEME
TIME_SYSTEM    = UTC
MEAN_ELEMENT_THEORY = SGP/SGP4

EPOCH          = 2025-12-04T15:50:31.921152
MEAN_MOTION    = 15.75307579
ECCENTRICITY   = .0002796
INCLINATION    = 42.9976
RA_OF_ASC_NODE = 240.5563
ARG_OF_PERICENTER = 246.6155
MEAN_ANOMALY   = 113.4421

EPHEMERIS_TYPE = 0
CLASSIFICATION_TYPE = U
NORAD_CAT_ID   = 66616
ELEMENT_SET_NO = 999
REV_AT_EPOCH   = 319
BSTAR          = .38519E-2
MEAN_MOTION_DOT = .646333E-2
MEAN_MOTION_DDOT = 0

CCSDS_OMM_VERS = 2.0
CREATION_DATE  = 
ORIGINATOR     = 

OBJECT_NAME    = STARLINK-35940
OBJECT_ID      = 2025-271A
CENTER_NAME    = EARTH
REF_FRAME      = TEME
TIME_SYSTEM    = UTC
MEAN_ELEMENT_THEORY = SGP/SGP4

EPOCH          = 2025-12-04T07:20:17.054880
MEAN_MOTION    = 15.81844120
ECCENTRICITY   = .0000678
INCLINATION    = 53.1574
RA_OF_ASC_NODE = 228.6482
ARG_OF_PERICENTER = 40.0862
MEAN_ANOMALY   = 320.0211

EPHEMERIS_TYPE = 0
CLASSIFICATION_TYPE = U
NORAD_CAT_ID   = 66617
ELEMENT_SET_NO = 999
REV_AT_EPOCH   = 288
BSTAR          = -.29443E-2
MEAN_MOTION_DOT = -.570206E-2
MEAN_MOTION_DDOT = 0

CCSDS_OMM_VERS = 2.0
CREATION_DATE  = 
ORIGINATOR     = 

OBJECT_NAME    = STARLINK-35970
OBJECT_ID      = 2025-271B
CENTER_NAME    = EARTH
REF_FRAME      = TEME
TIME_SYSTEM    = UTC
MEAN_ELEMENT_THEORY = SGP/SGP4

EPOCH          = 2025-12-04T16:08:47.378112
MEAN_MOTION    = 15.78027581
ECCENTRICITY   = .000024
INCLINATION    = 53.1563
RA_OF_ASC_NODE = 226.6615
ARG_OF_PERICENTER = 190.9660
MEAN_ANOMALY   = 169.1356

EPHEMERIS_TYPE = 0
CLASSIFICATION_TYPE = U
NORAD_CAT_ID   = 66618
ELEMENT_SET_NO = 999
REV_AT_EPOCH   = 294
BSTAR          = -.69931E-2
MEAN_MOTION_DOT = -.108913E-1
MEAN_MOTION_DDOT = 0

CCSDS_OMM_VERS = 2.0
CREATION_DATE  = 
ORIGINATOR     = 

OBJECT_NAME    = STARLINK-35951
OBJECT_ID      = 2025-271C
CENTER_NAME    = EARTH
REF_FRAME      = TEME
TIME_SYSTEM    = UTC
MEAN_ELEMENT_THEORY = SGP/SGP4

EPOCH          = 2025-12-04T16:24:17.728128
MEAN_MOTION    = 15.81164298
ECCENTRICITY   = .0003985
INCLINATION    = 53.1566
RA_OF_ASC_NODE = 226.7354
ARG_OF_PERICENTER = 184.8353
MEAN_ANOMALY   = 175.2632

EPHEMERIS_TYPE = 0
CLASSIFICATION_TYPE = U
NORAD_CAT_ID   = 66619
ELEMENT_SET_NO = 999
REV_AT_EPOCH   = 294
BSTAR          = .31545E-2
MEAN_MOTION_DOT = .682668E-2
MEAN_MOTION_DDOT = 0

CCSDS_OMM_VERS = 2.0
CREATION_DATE  = 
ORIGINATOR     = 

OBJECT_NAME    = STARLINK-35936
OBJECT_ID      = 2025-271D
CENTER_NAME    = EARTH
REF_FRAME      = TEME
TIME_SYSTEM    = UTC
MEAN_ELEMENT_THEORY = SGP/SGP4

EPOCH          = 2025-12-04T16:25:56.974080
MEAN_MOTION    = 15.80825701
ECCENTRICITY   = .0002899
INCLINATION    = 53.1570
RA_OF_ASC_NODE = 226.7449
ARG_OF_PERICENTER = 194.5504
MEAN_ANOMALY   = 165.5436

EPHEMERIS_TYPE = 0
CLASSIFICATION_TYPE = U
NORAD_CAT_ID   = 66620
ELEMENT_SET_NO = 999
REV_AT_EPOCH   = 294
BSTAR          = -.72034E-3
MEAN_MOTION_DOT = -.140336E-2
MEAN_MOTION_DDOT = 0

CCSDS_OMM_VERS = 2.0
CREATION_DATE  = 
ORIGINATOR     = 

OBJECT_NAME    = STARLINK-35847
OBJECT_ID      = 2025-271E
CENTER_NAME    = EARTH
REF_FRAME      = TEME
TIME_SYSTEM    = UTC
MEAN_ELEMENT_THEORY = SGP/SGP4

EPOCH          = 2025-12-04T05:29:14.400096
MEAN_MOTION    = 15.80119551
ECCENTRICITY   = .000083
INCLINATION    = 53.1563
RA_OF_ASC_NODE = 228.8686
ARG_OF_PERICENTER = 162.0892
MEAN_ANOMALY   = 198.0160

EPHEMERIS_TYPE = 0
CLASSIFICATION_TYPE = U
NORAD_CAT_ID   = 66621
ELEMENT_SET_NO = 999
REV_AT_EPOCH   = 287
BSTAR          = -.41389E-2
MEAN_MOTION_DOT = -.726477E-2
MEAN_MOTION_DDOT = 0

CCSDS_OMM_VERS = 2.0
CREATION_DATE  = 
ORIGINATOR     = 

OBJECT_NAME    = STARLINK-35950
OBJECT_ID      = 2025-271F
CENTER_NAME    = EARTH
REF_FRAME      = TEME
TIME_SYSTEM    = UTC
MEAN_ELEMENT_THEORY = SGP/SGP4

EPOCH          = 2025-12-04T07:17:24.781920
MEAN_MOTION    = 15.81843167
ECCENTRICITY   = .0000392
INCLINATION    = 53.1570
RA_OF_ASC_NODE = 228.6341
ARG_OF_PERICENTER = 311.7184
MEAN_ANOMALY   = 48.3805

EPHEMERIS_TYPE = 0
CLASSIFICATION_TYPE = U
NORAD_CAT_ID   = 66622
ELEMENT_SET_NO = 999
REV_AT_EPOCH   = 288
BSTAR          = -.27019E-2
MEAN_MOTION_DOT = -.525909E-2
MEAN_MOTION_DDOT = 0

