STARLINK-35583          
1 66611U 25270Z   25338.66177874  .00513526  00000+0  31127-2 0  9990
2 66611  42.9979 240.5686 0002707 258.8911 101.1654 15.75290299  3193
STARLINK-36039          
1 66612U 25270AA  25338.72418111  .00526889  00000+0  31974-2 0  9996
2 66612  42.9979 240.1763 0002334 219.2199 140.8501 15.75226148  3093
STARLINK-36037          
1 66613U 25270AB  25337.45647043  .00125531  00000+0  72767-3 0  9999
2 66613  43.0001 247.8703 0004122 349.4174  10.6608 15.77412165  2893
STARLINK-36040          
1 66614U 25270AC  25338.66042862  .00814786  00000+0  47436-2 0  9993
2 66614  42.9982 240.5572 0003190 243.2754 116.7789 15.75376134  2928
STARLINK-35988          
1 66615U 25270AD  25338.02595770  .00361862  00000+0  20155-2 0  9996
2 66615  42.9993 244.4008 0012646 273.4991  86.4432 15.77540776  2826
STARLINK-35391          
1 66616U 25270AE  25338.66009168  .00646333  00000+0  38519-2 0  9990
2 66616  42.9976 240.5563 0002796 246.6155 113.4421 15.75307579  3190
STARLINK-35940          
1 66617U 25271A   25338.30575295 -.00570206  00000+0 -29443-2 0  9995
2 66617  53.1574 228.6482 0000678  40.0862 320.0211 15.81844120  2887
STARLINK-35970          
1 66618U 25271B   25338.67277058 -.01089130  00000+0 -69931-2 0  9990
2 66618  53.1563 226.6615 0000240 190.9660 169.1356 15.78027581  2947
STARLINK-35951          
1 66619U 25271C   25338.68353852  .00682668  00000+0  31545-2 0  9991
2 66619  53.1566 226.7354 0003985 184.8353 175.2632 15.81164298  2948
STARLINK-35936          
1 66620U 25271D   25338.68468720 -.00140336  00000+0 -72034-3 0  9996
2 66620  53.1570 226.7449 0002899 194.5504 165.5436 15.80825701  2945
STARLINK-35847          
1 66621U 25271E   25338.22863889 -.00726477  00000+0 -41389-2 0  9996
2 66621  53.1563 228.8686 0000830 162.0892 198.0160 15.80119551  2873
STARLINK-35950          
1 66622U 25271F   25338.30375905 -.00525909  00000+0 -27019-2 0  9994
2 66622  53.1570 228.6341 0000392 311.7184  48.3805 15.81843167  2880
